NORAD_CAT_ID,OBJECT_NAME,OBJECT_TYPE,EPOCH,MEAN_MOTION,ECCENTRICITY,INCLINATION,RA_OF_ASC_NODE,ARG_OF_PERICENTER,MEAN_ANOMALY,BSTAR,MEAN_MOTION_DOT,MEAN_MOTION_DDOT,TLE_LINE0,TLE_LINE1,TLE_LINE2,SEMIMAJOR_AXIS,PERIOD,APOGEE,PERIGEE,DECAYED
52370.0,STARLINK-3827,PAYLOAD,2023-01-06 23:03:13,15.08832222,0.0002003,53.2177,346.3727,29.8854,330.2252,-0.00017644,-3.095e-05,0.0,0 STARLINK-3827,1 52370U 22045AR  23006.96057559 -.00003095  00000-0 -17644-3 0  9991,2 52370  53.2177 346.3727 0002003  29.8854 330.2252 15.08832222 41147,6917.904,95.438,541.155,538.384,0.0
52370.0,STARLINK-3827,PAYLOAD,2023-01-07 05:24:45,15.08847632,0.0002059,53.2161,345.1837,34.9956,325.1171,0.00017759,2.54e-05,0.0,0 STARLINK-3827,1 52370U 22045AR  23007.22553238  .00002540  00000-0  17759-3 0  9995,2 52370  53.2161 345.1837 0002059  34.9956 325.1171 15.08847632 41188,6917.857,95.437,541.146,538.298,0.0
52370.0,STARLINK-3827,PAYLOAD,2023-01-07 08:35:32,15.08846657,0.0002107,53.2165,344.589,34.6823,325.4306,0.00068852,0.00010689,0.0,0 STARLINK-3827,1 52370U 22045AR  23007.35801517  .00010689  00000-0  68852-3 0  9998,2 52370  53.2165 344.5890 0002107  34.6823 325.4306 15.08846657 41200,6917.86,95.437,541.183,538.2669999999998,0.0
52370.0,STARLINK-3827,PAYLOAD,2023-01-07 14:57:05,15.08831659,0.0002343,53.2173,343.3976,41.7499,318.3671,0.00021987,3.212e-05,0.0,0 STARLINK-3827,1 52370U 22045AR  23007.62298219  .00003212  00000-0  21987-3 0  9999,2 52370  53.2173 343.3976 0002343  41.7499 318.3671 15.08831659 41247,6917.906,95.438,541.3919999999998,538.15,0.0
52370.0,STARLINK-3827,PAYLOAD,2023-01-08 06:50:57,15.08834498,0.000198,53.2169,340.4245,36.8171,323.2956,0.00014804,2.068e-05,0.0,0 STARLINK-3827,1 52370U 22045AR  23008.28538398  .00002068  00000-0  14804-3 0  9995,2 52370  53.2169 340.4245 0001980  36.8171 323.2956 15.08834498 41343,6917.897,95.438,541.132,538.3919999999998,0.0
52370.0,STARLINK-3827,PAYLOAD,2023-01-08 16:23:16,15.08840004,0.0002004,53.2168,338.6406,37.1694,322.9436,0.00026723,3.967e-05,0.0,0 STARLINK-3827,1 52370U 22045AR  23008.68282412  .00003967  00000-0  26723-3 0  9994,2 52370  53.2168 338.6406 0002004  37.1694 322.9436 15.08840004 41408,6917.88,95.438,541.132,538.359,0.0
52370.0,STARLINK-3827,PAYLOAD,2023-01-09 06:41:44,15.08848115,0.0002015,53.2165,335.9644,39.0574,321.0564,0.00042307,6.453e-05,0.0,0 STARLINK-3827,1 52370U 22045AR  23009.27898344  .00006453  00000-0  42307-3 0  9996,2 52370  53.2165 335.9644 0002015  39.0574 321.0564 15.08848115 41491,6917.856,95.437,541.115,538.327,0.0
52370.0,STARLINK-3827,PAYLOAD,2023-01-09 14:38:40,15.0884194,0.0002024,53.2161,334.4775,40.1783,319.9358,0.0002235,3.271e-05,0.0,0 STARLINK-3827,1 52370U 22045AR  23009.61018528  .00003271  00000-0  22350-3 0  9993,2 52370  53.2161 334.4775 0002024  40.1783 319.9358 15.08841940 41543,6917.874,95.437,541.14,538.339,0.0
52370.0,STARLINK-3827,PAYLOAD,2023-01-10 04:57:08,15.08839083,0.0001503,53.2158,331.8022,50.945,309.1676,5.418600000000001e-05,5.74e-06,0.0,0 STARLINK-3827,1 52370U 22045AR  23010.20634428  .00000574  00000-0  54186-4 0  9999,2 52370  53.2158 331.8022 0001503  50.9450 309.1676 15.08839083 41635,6917.883000000002,95.438,540.788,538.7080000000002,0.0
52370.0,STARLINK-3827,PAYLOAD,2023-01-10 20:50:59,15.08842145,0.0001825,53.2166,328.8276,46.1048,314.0094,0.00013859,1.918e-05,0.0,0 STARLINK-3827,1 52370U 22045AR  23010.86874556  .00001918  00000-0  13859-3 0  9993,2 52370  53.2166 328.8276 0001825  46.1048 314.0094 15.08842145 41731,6917.874,95.437,541.001,538.476,0.0
52370.0,STARLINK-3827,PAYLOAD,2023-01-11 14:20:14,15.08835515,0.0001954,53.2169,325.5566,46.0948,314.0205,0.00017043,2.425e-05,0.0,0 STARLINK-3827,1 52370U 22045AR  23011.59738578  .00002425  00000-0  17043-3 0  9990,2 52370  53.2169 325.5566 0001954  46.0948 314.0205 15.08835515 41840,6917.894,95.438,541.111,538.4069999999998,0.0
52370.0,STARLINK-3827,PAYLOAD,2023-01-11 20:41:47,15.08820078,0.0001848,53.2163,324.3685,46.4332,313.6813,-0.00024207,-4.137e-05,0.0,0 STARLINK-3827,1 52370U 22045AR  23011.86235312 -.00004137  00000-0 -24207-3 0  9992,2 52370  53.2163 324.3685 0001848  46.4332 313.6813 15.08820078 41888,6917.941,95.439,541.085,538.528,0.0
52370.0,STARLINK-3827,PAYLOAD,2023-01-12 03:03:20,15.08828932,0.0001781999999999,53.216,323.1776,56.0832,304.0329,-4.0909e-05,-9.39e-06,0.0,0 STARLINK-3827,1 52370U 22045AR  23012.12731631 -.00000939  00000-0 -40909-4 0  9991,2 52370  53.2160 323.1776 0001782  56.0832 304.0329 15.08828932 41920,6917.914000000002,95.438,541.012,538.5459999999998,0.0
52370.0,STARLINK-3827,PAYLOAD,2023-01-12 15:46:25,15.08833317,0.0001985,53.2155,320.7994,55.0187,305.0992,0.00018961,2.730000000000001e-05,0.0,0 STARLINK-3827,1 52370U 22045AR  23012.65723959  .00002730  00000-0  18961-3 0  9994,2 52370  53.2155 320.7994 0001985  55.0187 305.0992 15.08833317 42006,6917.901,95.438,541.139,538.393,0.0
52370.0,STARLINK-3827,PAYLOAD,2023-01-13 02:54:07,15.08840712,0.0001784,53.2161,318.7183,58.6803,301.4364,0.00064486,9.990000000000002e-05,0.0,0 STARLINK-3827,1 52370U 22045AR  23013.12092249  .00009990  00000-0  64486-3 0  9996,2 52370  53.2161 318.7183 0001784  58.6803 301.4364 15.08840712 42078,6917.878000000001,95.438,540.977,538.509,0.0
52370.0,STARLINK-3827,PAYLOAD,2023-01-14 02:44:54,15.08851534,0.0001721999999999,53.2157,314.2572,66.3462,293.7711,0.00054625,8.419e-05,0.0,0 STARLINK-3827,1 52370U 22045AR  23014.11452200  .00008419  00000-0  54625-3 0  9992,2 52370  53.2157 314.2572 0001722  66.3462 293.7711 15.08851534 42225,6917.845,95.437,540.901,538.519,0.0
52370.0,STARLINK-3827,PAYLOAD,2023-01-14 12:17:13,15.08844219,0.0001826,53.2157,312.4749,71.8682,288.2509,0.00021726,3.172e-05,0.0,0 STARLINK-3827,1 52370U 22045AR  23014.51196295  .00003172  00000-0  21726-3 0  9992,2 52370  53.2157 312.4749 0001826  71.8682 288.2509 15.08844219 42283,6917.866999999999,95.437,540.996,538.469,0.0
52370.0,STARLINK-3827,PAYLOAD,2023-01-15 12:08:00,15.08846192,0.0001979,53.2165,308.0154,86.3354,273.7865,0.00012484,1.7e-05,0.0,0 STARLINK-3827,1 52370U 22045AR  23015.50555927  .00001700  00000-0  12484-3 0  9999,2 52370  53.2165 308.0154 0001979  86.3354 273.7865 15.08846192 42432,6917.861,95.437,541.096,538.357,0.0
52370.0,STARLINK-3827,PAYLOAD,2023-01-16 04:01:50,15.08877466,0.0001375999999999,53.2156,305.0381,88.1804,271.9346,0.00075334,0.00011734,0.0,0 STARLINK-3827,1 52370U 22045AR  23016.16794290  .00011734  00000-0  75334-3 0  9991,2 52370  53.2156 305.0381 0001376  88.1804 271.9346 15.08877466 42535,6917.766,95.435,540.5830000000001,538.679,0.0
52370.0,STARLINK-3827,PAYLOAD,2023-01-16 11:58:46,15.08846872,0.0002256999999999,53.2158,303.5534,70.1172,290.0063,7.8213e-05,9.57e-06,0.0,0 STARLINK-3827,1 52370U 22045AR  23016.49915383  .00000957  00000-0  78213-4 0  9990,2 52370  53.2158 303.5534 0002257  70.1172 290.0063 15.08846872 42588,6917.859,95.437,541.286,538.163,0.0
52370.0,STARLINK-3827,PAYLOAD,2023-01-16 19:55:43,15.08808006,0.0001655,53.2154,302.067,72.9433,287.1741,-0.00077551,-0.00012598,0.0,0 STARLINK-3827,1 52370U 22045AR  23016.83036611 -.00012598  00000-0 -77551-3 0  9995,2 52370  53.2154 302.0670 0001655  72.9433 287.1741 15.08808006 42633,6917.978,95.44,540.988,538.698,0.0
52370.0,STARLINK-3827,PAYLOAD,2023-01-17 03:52:39,15.08815834,0.0001609,53.2163,300.5798,75.6536,284.4635,-0.00040782,-6.768e-05,0.0,0 STARLINK-3827,1 52370U 22045AR  23017.16156876 -.00006768  00000-0 -40782-3 0  9996,2 52370  53.2163 300.5798 0001609  75.6536 284.4635 15.08815834 42684,6917.954000000001,95.439,540.932,538.706,0.0
52370.0,STARLINK-3827,PAYLOAD,2023-01-17 13:24:58,15.08820724,0.0001536,53.2155,298.7957,59.4194,300.6949,0.0010609999999999,0.00016629,0.0,0 STARLINK-3827,1 52370U 22045AR  23017.55901577  .00016629  00000-0  10610-2 0  9996,2 52370  53.2155 298.7957 0001536  59.4194 300.6949 15.08820724 42749,6917.939,95.439,540.867,538.742,0.0
52370.0,STARLINK-3827,PAYLOAD,2023-01-18 00:32:40,15.08857852,0.000148,53.2149,296.7127,60.5355,299.5785,0.0018815,0.00029798,0.0,0 STARLINK-3827,1 52370U 22045AR  23018.02269433  .00029798  00000-0  18815-2 0  9993,2 52370  53.2149 296.7127 0001480  60.5355 299.5785 15.08857852 42813,6917.826,95.436,540.715,538.6669999999999,0.0
52370.0,STARLINK-3827,PAYLOAD,2023-01-18 13:15:45,15.08865967,0.000134,53.2136,294.3337,73.2744,286.8395,0.0015272,0.00024118,0.0,0 STARLINK-3827,1 52370U 22045AR  23018.55260892  .00024118  00000-0  15272-2 0  9996,2 52370  53.2136 294.3337 0001340  73.2744 286.8395 15.08865967 42894,6917.801,95.436,540.5930000000001,538.739,0.0
52370.0,STARLINK-3827,PAYLOAD,2023-01-18 14:51:08,15.08858729,0.0001343,53.2149,294.0385,60.4188,299.6938,0.0011515999999999,0.00018097,0.0,0 STARLINK-3827,1 52370U 22045AR  23018.61885004  .00018097  00000-0  11516-2 0  9997,2 52370  53.2149 294.0385 0001343  60.4188 299.6938 15.08858729 42906,6917.823,95.436,540.617,538.759,0.0
52370.0,STARLINK-3827,PAYLOAD,2023-01-18 19:37:17,15.08869495,0.0001242999999999,53.2149,293.1448,63.3219,296.79,0.0015468,0.00024435,0.0,0 STARLINK-3827,1 52370U 22045AR  23018.81756559  .00024435  00000-0  15468-2 0  9994,2 52370  53.2149 293.1448 0001243  63.3219 296.7900 15.08869495 42934,6917.79,95.436,540.515,538.795,0.0
52370.0,STARLINK-3827,PAYLOAD,2023-01-19 11:31:08,15.088466699999998,0.0001302,53.2152,290.1716,74.914,285.1996,0.00018473,2.654e-05,0.0,0 STARLINK-3827,1 52370U 22045AR  23019.47996252  .00002654  00000-0  18473-3 0  9992,2 52370  53.2152 290.1716 0001302  74.9140 285.1996 15.08846670 43039,6917.86,95.437,540.626,538.8240000000001,0.0
52370.0,STARLINK-3827,PAYLOAD,2023-01-20 00:14:14,15.08825461,0.000103,53.2151,287.7928,79.0404,281.0704,-0.00019526,-3.393e-05,0.0,0 STARLINK-3827,1 52370U 22045AR  23020.00988979 -.00003393  00000-0 -19526-3 0  9993,2 52370  53.2151 287.7928 0001030  79.0404 281.0704 15.08825461 43118,6917.925,95.438,540.502,539.077,0.0
